{"type": "FeatureCollection", "features": [ {"type": "Feature", "properties": {"norad_id": 33153, "name": "INTELSAT 25 (IS-25)", "group": "intelsat", "lat": 2.0530703937975088, "lon": 146.80981110470728, "alt_km": 35798.508859988615, "timestamp": "2025-12-27T05:29:38.861833+00:00", "meta": {"OBJECT_NAME": "INTELSAT 25 (IS-25)", "OBJECT_ID": "2008-034A", "EPOCH": "2025-12-26T11:10:18.842304", "MEAN_MOTION": 1.00271391, "ECCENTRICITY": 0.0004996, "INCLINATION": 2.2611, "RA_OF_ASC_NODE": 82.4991, "ARG_OF_PERICENTER": 190.6323, "MEAN_ANOMALY": 318.163, "EPHEMERIS_TYPE": 0, "CLASSIFICATION_TYPE": "U", "NORAD_CAT_ID": 33153, "ELEMENT_SET_NO": 999, "REV_AT_EPOCH": 6396, "BSTAR": 0, "MEAN_MOTION_DOT": -2.03e-06, "MEAN_MOTION_DDOT": 0}, "tle": {"line1": "1 33153U 08034A   25360.46549586 -.00000203  00000+0  00000+0 0  9997", "line2": "2 33153   2.2611  82.4991 0004996 190.6323 318.1630  1.00271391 63964"}}, "geometry": {"type": "Point", "coordinates": [146.80981110470728, 2.0530703937975088]}}, {"type": "Feature", "properties": {"norad_id": 33376, "name": "GALAXY 19 (G-19)", "group": "intelsat", "lat": 0.01923294948569151, "lon": 81.37707890359724, "alt_km": 35797.230364270385, "timestamp": "2025-12-27T05:29:38.861845+00:00", "meta": {"OBJECT_NAME": "GALAXY 19 (G-19)", "OBJECT_ID": "2008-045A", "EPOCH": "2025-12-26T11:24:38.058336", "MEAN_MOTION": 1.00271648, "ECCENTRICITY": 0.0002814, "INCLINATION": 0.0383, "RA_OF_ASC_NODE": 264.7732, "ARG_OF_PERICENTER": 18.0555, "MEAN_ANOMALY": 246.5482, "EPHEMERIS_TYPE": 0, "CLASSIFICATION_TYPE": "U", "NORAD_CAT_ID": 33376, "ELEMENT_SET_NO": 999, "REV_AT_EPOCH": 6317, "BSTAR": 0, "MEAN_MOTION_DOT": -1.17e-06, "MEAN_MOTION_DDOT": 0}, "tle": {"line1": "1 33376U 08045A   25360.47544049 -.00000117  00000+0  00000+0 0  9990", "line2": "2 33376   0.0383 264.7732 0002814  18.0555 246.5482  1.00271648 63175"}}, "geometry": {"type": "Point", "coordinates": [81.37707890359724, 0.01923294948569151]}}, {"type": "Feature", "properties": {"norad_id": 35493, "name": "FM-5", "group": "intelsat", "lat": 0.01800330197694182, "lon": 92.19505073319586, "alt_km": 35785.63768800615, "timestamp": "2025-12-27T05:29:38.861857+00:00", "meta": {"OBJECT_NAME": "FM-5", "OBJECT_ID": "2009-034A", "EPOCH": "2025-12-25T21:13:02.840160", "MEAN_MOTION": 1.00269478, "ECCENTRICITY": 7.9e-05, "INCLINATION": 0.0148, "RA_OF_ASC_NODE": 303.8545, "ARG_OF_PERICENTER": 217.7513, "MEAN_ANOMALY": 165.1409, "EPHEMERIS_TYPE": 0, "CLASSIFICATION_TYPE": "U", "NORAD_CAT_ID": 35493, "ELEMENT_SET_NO": 999, "REV_AT_EPOCH": 4490, "BSTAR": 0, "MEAN_MOTION_DOT": -1.78e-06, "MEAN_MOTION_DDOT": 0}, "tle": {"line1": "1 35493U 09034A   25359.88406065 -.00000178  00000+0  00000+0 0  9996", "line2": "2 35493   0.0148 303.8545 0000790 217.7513 165.1409  1.00269478 44909"}}, "geometry": {"type": "Point", "coordinates": [92.19505073319586, 0.01800330197694182]}}, {"type": "Feature", "properties": {"norad_id": 36097, "name": "INTELSAT 14 (IS-14)", "group": "intelsat", "lat": 0.028677299357629304, "lon": 133.35144726395322, "alt_km": 35795.82387144431, "timestamp": "2025-12-27T05:29:38.861869+00:00", "meta": {"OBJECT_NAME": "INTELSAT 14 (IS-14)", "OBJECT_ID": "2009-064A", "EPOCH": "2025-12-26T17:57:24.857568", "MEAN_MOTION": 1.00271572, "ECCENTRICITY": 0.00026568, "INCLINATION": 0.0132, "RA_OF_ASC_NODE": 41.9952, "ARG_OF_PERICENTER": 240.387, "MEAN_ANOMALY": 37.4606, "EPHEMERIS_TYPE": 0, "CLASSIFICATION_TYPE": "U", "NORAD_CAT_ID": 36097, "ELEMENT_SET_NO": 999, "REV_AT_EPOCH": 5887, "BSTAR": 0, "MEAN_MOTION_DOT": -2.51e-06, "MEAN_MOTION_DDOT": 0}, "tle": {"line1": "1 36097U 09064A   25360.74820437 -.00000251  00000+0  00000+0 0  9992", "line2": "2 36097   0.0132  41.9952 0002656 240.3870  37.4606  1.00271572 58875"}}, "geometry": {"type": "Point", "coordinates": [133.35144726395322, 0.028677299357629304]}}, {"type": "Feature", "properties": {"norad_id": 36106, "name": "INTELSAT 15 (IS-15)", "group": "intelsat", "lat": -0.02171873993873112, "lon": -96.49824630599996, "alt_km": 35777.126541542624, "timestamp": "2025-12-27T05:29:38.861881+00:00", "meta": {"OBJECT_NAME": "INTELSAT 15 (IS-15)", "OBJECT_ID": "2009-067A", "EPOCH": "2025-12-26T18:35:08.612736", "MEAN_MOTION": 1.00269968, "ECCENTRICITY": 0.00024632, "INCLINATION": 0.0172, "RA_OF_ASC_NODE": 56.5413, "ARG_OF_PERICENTER": 231.3991, "MEAN_ANOMALY": 171.5093, "EPHEMERIS_TYPE": 0, "CLASSIFICATION_TYPE": "U", "NORAD_CAT_ID": 36106, "ELEMENT_SET_NO": 999, "REV_AT_EPOCH": 3950, "BSTAR": 0, "MEAN_MOTION_DOT": -1.63e-06, "MEAN_MOTION_DDOT": 0}, "tle": {"line1": "1 36106U 09067A   25360.77440524 -.00000163  00000+0  00000+0 0  9996", "line2": "2 36106   0.0172  56.5413 0002463 231.3991 171.5093  1.00269968 39509"}}, "geometry": {"type": "Point", "coordinates": [-96.49824630599996, -0.02171873993873112]}}, {"type": "Feature", "properties": {"norad_id": 36131, "name": "DIRECTV 12", "group": "intelsat", "lat": -0.005595084128451949, "lon": 75.6715941184134, "alt_km": 35786.85059752687, "timestamp": "2025-12-27T05:29:38.861893+00:00", "meta": {"OBJECT_NAME": "DIRECTV 12", "OBJECT_ID": "2009-075A", "EPOCH": "2025-12-25T14:17:27.635136", "MEAN_MOTION": 1.00273448, "ECCENTRICITY": 5.26e-05, "INCLINATION": 0.0362, "RA_OF_ASC_NODE": 165.2057, "ARG_OF_PERICENTER": 147.3669, "MEAN_ANOMALY": 253.4343, "EPHEMERIS_TYPE": 0, "CLASSIFICATION_TYPE": "U", "NORAD_CAT_ID": 36131, "ELEMENT_SET_NO": 999, "REV_AT_EPOCH": 4481, "BSTAR": 0, "MEAN_MOTION_DOT": -8.2e-07, "MEAN_MOTION_DDOT": 0}, "tle": {"line1": "1 36131U 09075A   25359.59545874 -.00000082  00000+0  00000+0 0  9995", "line2": "2 36131   0.0362 165.2057 0000526 147.3669 253.4343  1.00273448 44812"}}, "geometry": {"type": "Point", "coordinates": [75.6715941184134, -0.005595084128451949]}}, {"type": "Feature", "properties": {"norad_id": 36397, "name": "INTELSAT 16 (IS-16)", "group": "intelsat", "lat": 0.028887396651738253, "lon": 102.18068119333822, "alt_km": 35794.63464539552, "timestamp": "2025-12-27T05:29:38.861905+00:00", "meta": {"OBJECT_NAME": "INTELSAT 16 (IS-16)", "OBJECT_ID": "2010-006A", "EPOCH": "2025-12-26T12:40:10.236000", "MEAN_MOTION": 1.00271686, "ECCENTRICITY": 0.0002026, "INCLINATION": 0.0098, "RA_OF_ASC_NODE": 8.0351, "ARG_OF_PERICENTER": 264.8493, "MEAN_ANOMALY": 296.2475, "EPHEMERIS_TYPE": 0, "CLASSIFICATION_TYPE": "U", "NORAD_CAT_ID": 36397, "ELEMENT_SET_NO": 999, "REV_AT_EPOCH": 5792, "BSTAR": 0, "MEAN_MOTION_DOT": -2.23e-06, "MEAN_MOTION_DDOT": 0}, "tle": {"line1": "1 36397U 10006A   25360.52789625 -.00000223  00000+0  00000+0 0  9991", "line2": "2 36397   0.0098   8.0351 0002026 264.8493 296.2475  1.00271686 57929"}}, "geometry": {"type": "Point", "coordinates": [102.18068119333822, 0.028887396651738253]}}, {"type": "Feature", "properties": {"norad_id": 37185, "name": "XM-5", "group": "intelsat", "lat": 0.04141131373269707, "lon": 63.15151700379774, "alt_km": 35785.93240760303, "timestamp": "2025-12-27T05:29:38.861916+00:00", "meta": {"OBJECT_NAME": "XM-5", "OBJECT_ID": "2010-053A", "EPOCH": "2025-12-26T06:45:38.542176", "MEAN_MOTION": 1.00272159, "ECCENTRICITY": 0.0002039, "INCLINATION": 0.0641, "RA_OF_ASC_NODE": 269.394, "ARG_OF_PERICENTER": 243.8981, "MEAN_ANOMALY": 287.9534, "EPHEMERIS_TYPE": 0, "CLASSIFICATION_TYPE": "U", "NORAD_CAT_ID": 37185, "ELEMENT_SET_NO": 999, "REV_AT_EPOCH": 5575, "BSTAR": 0, "MEAN_MOTION_DOT": -1e-08, "MEAN_MOTION_DDOT": 0}, "tle": {"line1": "1 37185U 10053A   25360.28169609 -.00000001  00000+0  00000+0 0  9990", "line2": "2 37185   0.0641 269.3940 0002039 243.8981 287.9534  1.00272159 55756"}}, "geometry": {"type": "Point", "coordinates": [63.15151700379774, 0.04141131373269707]}}, {"type": "Feature", "properties": {"norad_id": 37238, "name": "INTELSAT 17 (IS-17)", "group": "intelsat", "lat": -0.006981024934720959, "lon": -115.68495312292843, "alt_km": 35778.71448272089, "timestamp": "2025-12-27T05:29:38.861928+00:00", "meta": {"OBJECT_NAME": "INTELSAT 17 (IS-17)", "OBJECT_ID": "2010-065B", "EPOCH": "2025-12-26T20:14:38.686848", "MEAN_MOTION": 1.00272055, "ECCENTRICITY": 0.00028945, "INCLINATION": 0.0298, "RA_OF_ASC_NODE": 74.5871, "ARG_OF_PERICENTER": 223.4014, "MEAN_ANOMALY": 167.2295, "EPHEMERIS_TYPE": 0, "CLASSIFICATION_TYPE": "U", "NORAD_CAT_ID": 37238, "ELEMENT_SET_NO": 999, "REV_AT_EPOCH": 5152, "BSTAR": 0, "MEAN_MOTION_DOT": 0, "MEAN_MOTION_DDOT": 0}, "tle": {"line1": "1 37238U 10065B   25360.84350332  .00000000  00000+0  00000+0 0  9997", "line2": "2 37238   0.0298  74.5871 0002894 223.4014 167.2295  1.00272055 51522"}}, "geometry": {"type": "Point", "coordinates": [-115.68495312292843, -0.006981024934720959]}}, {"type": "Feature", "properties": {"norad_id": 37392, "name": "INTELSAT 28 (IS-28)", "group": "intelsat", "lat": 1.2107142464925342, "lon": 146.6211294027308, "alt_km": 35795.61094317991, "timestamp": "2025-12-27T05:29:38.861940+00:00", "meta": {"OBJECT_NAME": "INTELSAT 28 (IS-28)", "OBJECT_ID": "2011-016A", "EPOCH": "2025-12-26T00:24:38.640960", "MEAN_MOTION": 1.00271568, "ECCENTRICITY": 0.00037974, "INCLINATION": 1.3569, "RA_OF_ASC_NODE": 84.9113, "ARG_OF_PERICENTER": 188.0675, "MEAN_ANOMALY": 156.2464, "EPHEMERIS_TYPE": 0, "CLASSIFICATION_TYPE": "U", "NORAD_CAT_ID": 37392, "ELEMENT_SET_NO": 999, "REV_AT_EPOCH": 5154, "BSTAR": 0, "MEAN_MOTION_DOT": -2.03e-06, "MEAN_MOTION_DDOT": 0}, "tle": {"line1": "1 37392U 11016A   25360.01711390 -.00000203  00000+0  00000+0 0  9995", "line2": "2 37392   1.3569  84.9113 0003797 188.0675 156.2464  1.00271568 51540"}}, "geometry": {"type": "Point", "coordinates": [146.6211294027308, 1.2107142464925342]}}]}